     3.04           N: GNSS NAV DATA    M: Mixed            RINEX VERSION / TYPE
RTKCONV demo5 b34k                      20250208 093741 UTC PGM / RUN BY / DATE 
format: u-blox UBX                                          COMMENT             
log: C:\Users\sgrc-325\Desktop\gpsing\base\LOG01077.ubx     COMMENT             
                                                            END OF HEADER       
E08 2025 01 23 03 20 00 -.404974445701D-03 -.621014351054D-11  .000000000000D+00
      .880000000000D+02 -.393750000000D+02  .316334605177D-08  .198663719109D+01
     -.196509063244D-05  .174500746652D-03  .723637640476D-05  .544060235977D+04
      .357600000000D+06 -.186264514923D-07 -.574093746452D-01  .316649675369D-07
      .969599576926D+00  .189718750000D+03  .239491578711D+00 -.547094217242D-08
      .149649090628D-09  .513000000000D+03  .235000000000D+04  .000000000000D+00
      .312000000000D+01  .000000000000D+00 -.768341124058D-08 -.721774995327D-08
      .358264000000D+06  .000000000000D+00
E30 2025 01 23 03 20 00 -.116489356151D-02 -.401456645704D-10  .000000000000D+00
      .880000000000D+02  .113250000000D+03  .286440502825D-08 -.907499969885D+00
      .528432428837D-05  .598917948082D-03  .893324613571D-05  .544062797165D+04
      .357600000000D+06  .279396772385D-07  .204443625347D+01  .502914190292D-07
      .961700085549D+00  .149156250000D+03  .101498645234D+01 -.540272504518D-08
     -.111076055335D-09  .513000000000D+03  .235000000000D+04  .000000000000D+00
      .312000000000D+01  .000000000000D+00 -.209547579288D-08 -.116415321827D-08
      .358264000000D+06  .000000000000D+00
E03 2025 01 23 03 20 00 -.168329395819D-03 -.250111042988D-11  .000000000000D+00
      .880000000000D+02 -.392812500000D+02  .332656713630D-08  .235708136965D+01
     -.190734863281D-05  .218773959205D-03  .675581395626D-05  .544059990883D+04
      .357600000000D+06 -.130385160446D-07 -.583473757738D-01 -.521540641785D-07
      .963763993782D+00  .193687500000D+03  .644548608220D+00 -.558987569790D-08
      .140362989539D-09  .513000000000D+03  .235000000000D+04  .000000000000D+00
      .312000000000D+01  .000000000000D+00  .000000000000D+00  .139698386192D-08
      .358264000000D+06  .000000000000D+00
E25 2025 01 23 03 20 00  .135433510877D-04  .383693077310D-12  .000000000000D+00
      .880000000000D+02  .845937500000D+02  .294690846485D-08  .114721745533D+01
      .391714274883D-05  .214618979953D-03  .840984284878D-05  .544061741066D+04
      .357600000000D+06  .391155481339D-07  .204188219746D+01 -.372529029846D-07
      .963907653800D+00  .161187500000D+03  .545293250430D+00 -.543558355673D-08
     -.183936233111D-09  .513000000000D+03  .235000000000D+04  .000000000000D+00
      .312000000000D+01  .000000000000D+00  .116415321827D-08  .256113708019D-08
      .358264000000D+06  .000000000000D+00
R13 2025 01 23 03 45 00 -.556418672204D-04  .000000000000D+00  .358260000000D+06
     -.205813212891D+05 -.178244686127D+01 -.931322574615D-09  .000000000000D+00
     -.385073291016D+04 -.905234336853D+00 -.186264514923D-08 -.200000000000D+01
      .145526015625D+05 -.275565719604D+01  .000000000000D+00  .000000000000D+00
R23 2025 01 23 03 45 00 -.144823454320D-03 -.909494701773D-12  .358260000000D+06
     -.147234067383D+05  .256255817413D+01 -.931322574615D-09  .000000000000D+00
     -.287175927734D+04 -.120325756073D+01 -.186264514923D-08  .300000000000D+01
      .206251606445D+05  .166217231750D+01  .000000000000D+00  .000000000000D+00
E05 2025 01 23 03 20 00  .482136325445D-02  .314059889206D-11  .000000000000D+00
      .880000000000D+02 -.305000000000D+02  .332656713630D-08 -.110827879658D+01
     -.132434070110D-05  .741166295484D-04  .693276524544D-05  .544060083580D+04
      .357600000000D+06  .558793544769D-07 -.583420653812D-01 -.745058059692D-08
      .963777372167D+00  .192375000000D+03 -.139280862709D+01 -.561166231969D-08
      .173221501085D-09  .513000000000D+03  .235000000000D+04  .000000000000D+00
      .312000000000D+01  .000000000000D+00  .931322574615D-09  .232830643654D-08
      .358294000000D+06  .000000000000D+00
E16 2025 01 23 03 20 00 -.167016405612D-04 -.211741735257D-11  .000000000000D+00
      .880000000000D+02  .799375000000D+02  .289976364394D-08 -.149923425987D+00
      .376999378204D-05  .269487267360D-03  .831671059132D-05  .544062476921D+04
      .357600000000D+06  .447034835815D-07  .203779311175D+01  .000000000000D+00
      .965807620118D+00  .163468750000D+03  .222247396157D+01 -.544879839290D-08
     -.170364239212D-09  .513000000000D+03  .235000000000D+04  .000000000000D+00
      .312000000000D+01  .390000000000D+03 -.512227416039D-08 -.279396772385D-08
      .358294000000D+06  .000000000000D+00
R17 2025 01 23 03 45 00  .159906223416D-03  .272848410532D-11  .358500000000D+06
     -.161046606445D+05 -.142506599426D+01  .000000000000D+00  .000000000000D+00
      .153185141602D+05  .977721214294D+00  .931322574615D-09  .400000000000D+01
     -.125372333984D+05  .301873874664D+01  .000000000000D+00  .000000000000D+00
E08 2025 01 23 03 30 00 -.404978229199D-03 -.621014351054D-11  .000000000000D+00
      .890000000000D+02 -.392500000000D+02  .317120352193D-08  .206109011581D+01
     -.196881592274D-05  .174522981979D-03  .722706317902D-05  .544060231209D+04
      .358200000000D+06 -.260770320892D-07 -.574126252491D-01  .335276126862D-07
      .969599642757D+00  .189531250000D+03  .239424435160D+00 -.547558522296D-08
      .149291932894D-09  .513000000000D+03  .235000000000D+04  .000000000000D+00
      .312000000000D+01  .000000000000D+00 -.768341124058D-08 -.721774995327D-08
      .358864000000D+06  .000000000000D+00
E05 2025 01 23 03 30 00  .482136511710D-02  .314059889206D-11  .000000000000D+00
      .890000000000D+02 -.299375000000D+02  .332585282083D-08 -.103307041219D+01
     -.129453837872D-05  .742590054870D-04  .699609518051D-05  .544060114098D+04
      .358200000000D+06  .614672899246D-07 -.583454520366D-01 -.186264514923D-08
      .963777451165D+00  .191250000000D+03 -.139363088653D+01 -.561309095063D-08
      .177507393895D-09  .513000000000D+03  .235000000000D+04  .000000000000D+00
      .312000000000D+01  .000000000000D+00  .931322574615D-09  .232830643654D-08
      .358864000000D+06  .000000000000D+00
E03 2025 01 23 03 30 00 -.168330909219D-03 -.250111042988D-11  .000000000000D+00
      .890000000000D+02 -.387187500000D+02  .333406744872D-08  .243143474133D+01
     -.185891985893D-05  .218691304326D-03  .673346221447D-05  .544060007668D+04
      .358200000000D+06 -.745058059692D-08 -.583507258562D-01 -.670552253723D-07
      .963764014263D+00  .193968750000D+03  .644581314679D+00 -.559809032579D-08
      .145363197818D-09  .513000000000D+03  .235000000000D+04  .000000000000D+00
      .312000000000D+01  .000000000000D+00  .000000000000D+00  .139698386192D-08
      .358885000000D+06  .000000000000D+00
E25 2025 01 23 03 30 00  .135436421260D-04  .383693077310D-12  .000000000000D+00
      .890000000000D+02  .828750000000D+02  .294262257204D-08  .122066548699D+01
      .384822487831D-05  .214558443986D-03  .840239226818D-05  .544061782455D+04
      .358200000000D+06  .447034835815D-07  .204187898782D+01 -.298023223877D-07
      .963907541155D+00  .161375000000D+03  .546230465971D+00 -.544058376501D-08
     -.187507810453D-09  .513000000000D+03  .235000000000D+04  .000000000000D+00
      .312000000000D+01  .000000000000D+00  .116415321827D-08  .256113708019D-08
      .358885000000D+06  .000000000000D+00
E30 2025 01 23 03 30 00 -.116491765948D-02 -.401456645704D-10  .000000000000D+00
      .890000000000D+02  .110781250000D+03  .286869092106D-08 -.833223708621D+00
      .517256557941D-05  .598622253165D-03  .892952084541D-05  .544062737274D+04
      .358200000000D+06  .167638063431D-07  .204443302188D+01  .596046447754D-07
      .961700075308D+00  .149218750000D+03  .101509454736D+01 -.539593904823D-08
     -.116790579082D-09  .513000000000D+03  .235000000000D+04  .000000000000D+00
      .312000000000D+01  .000000000000D+00 -.209547579288D-08 -.116415321827D-08
      .358894000000D+06  .000000000000D+00
E07 2025 01 23 02 40 00 -.165055040270D-03 -.203215222427D-11  .000000000000D+00
      .840000000000D+02 -.430937500000D+02  .323977780689D-08  .174739270656D+01
     -.199489295483D-05  .180290197022D-03  .719539821148D-05  .544060373688D+04
      .355200000000D+06  .372529029846D-08 -.582651978136D-01  .186264514923D-07
      .963804899897D+00  .186500000000D+03 -.607209354878D+00 -.550201489529D-08
      .210008747707D-09  .513000000000D+03  .235000000000D+04  .000000000000D+00
      .312000000000D+01  .000000000000D+00  .698491930962D-09  .232830643654D-08
      .358945000000D+06  .000000000000D+00
E02 2025 01 23 03 30 00  .192095874809D-03  .289901436190D-11  .000000000000D+00
      .890000000000D+02  .955000000000D+02  .294333688751D-08  .231790478044D+00
      .449270009995D-05  .523564289324D-03  .820308923721D-05  .544062215042D+04
      .358200000000D+06 -.651925802231D-07  .204504426709D+01 -.279396772385D-07
      .964300245422D+00  .167750000000D+03  .745092147302D+00 -.537379526871D-08
     -.175007289756D-09  .513000000000D+03  .235000000000D+04  .000000000000D+00
      .312000000000D+01  .000000000000D+00 -.395812094212D-08 -.395812094212D-08
      .359014000000D+06  .000000000000D+00
E08 2025 01 23 03 40 00 -.404982012697D-03 -.621014351054D-11  .000000000000D+00
      .900000000000D+02 -.392187500000D+02  .317334646833D-08  .213550359440D+01
     -.197440385818D-05  .174534739926D-03  .721216201782D-05  .544060228920D+04
      .358800000000D+06 -.223517417908D-07 -.574159387586D-01  .260770320892D-07
      .969599749550D+00  .189406250000D+03  .239396786008D+00 -.547094217242D-08
      .150720563831D-09  .513000000000D+03  .235000000000D+04  .000000000000D+00
      .312000000000D+01  .000000000000D+00 -.768341124058D-08 -.721774995327D-08
      .359464000000D+06  .000000000000D+00
